{"fetched_at":"2026-07-14T17:40:18.029Z","source":"https://celestrak.org/NORAD/elements/gp.php?GROUP=globalstar&FORMAT=JSON","constellation":"globalstar","records":[{"OBJECT_NAME":"GLOBALSTAR M069","OBJECT_ID":"2007-020C","EPOCH":"2026-07-14T03:44:48.088896","CLASSIFICATION_TYPE":"U","MEAN_MOTION":12.23472174,"ECCENTRICITY":0.0001674,"INCLINATION":52.001,"RA_OF_ASC_NODE":175.793,"ARG_OF_PERICENTER":207.9208,"MEAN_ANOMALY":235.9783,"EPHEMERIS_TYPE":0,"NORAD_CAT_ID":31573,"ELEMENT_SET_NO":999,"REV_AT_EPOCH":88210,"BSTAR":-0.0001204,"MEAN_MOTION_DOT":-0.00000106,"MEAN_MOTION_DDOT":0},{"OBJECT_NAME":"GLOBALSTAR M072","OBJECT_ID":"2007-020D","EPOCH":"2026-07-14T00:01:34.976928","CLASSIFICATION_TYPE":"U","MEAN_MOTION":11.91658747,"ECCENTRICITY":0.000165,"INCLINATION":51.9946,"RA_OF_ASC_NODE":28.8595,"ARG_OF_PERICENTER":33.2549,"MEAN_ANOMALY":134.0531,"EPHEMERIS_TYPE":0,"NORAD_CAT_ID":31574,"ELEMENT_SET_NO":999,"REV_AT_EPOCH":87817,"BSTAR":0.00019944,"MEAN_MOTION_DOT":-6.9e-7,"MEAN_MOTION_DDOT":0},{"OBJECT_NAME":"GLOBALSTAR M066","OBJECT_ID":"2007-048C","EPOCH":"2026-07-13T21:49:39.879840","CLASSIFICATION_TYPE":"U","MEAN_MOTION":12.30389264,"ECCENTRICITY":0.0005633,"INCLINATION":51.961,"RA_OF_ASC_NODE":341.2013,"ARG_OF_PERICENTER":98.8441,"MEAN_ANOMALY":74.5363,"EPHEMERIS_TYPE":0,"NORAD_CAT_ID":32265,"ELEMENT_SET_NO":999,"REV_AT_EPOCH":86351,"BSTAR":0.00025156,"MEAN_MOTION_DOT":-6.5e-7,"MEAN_MOTION_DDOT":0},{"OBJECT_NAME":"GLOBALSTAR M079","OBJECT_ID":"2010-054A","EPOCH":"2026-07-14T00:03:29.875968","CLASSIFICATION_TYPE":"U","MEAN_MOTION":12.62266417,"ECCENTRICITY":0.0001117,"INCLINATION":52.0051,"RA_OF_ASC_NODE":27.0404,"ARG_OF_PERICENTER":75.6258,"MEAN_ANOMALY":89.0522,"EPHEMERIS_TYPE":0,"NORAD_CAT_ID":37188,"ELEMENT_SET_NO":999,"REV_AT_EPOCH":72593,"BSTAR":0.000018298,"MEAN_MOTION_DOT":-0.000001,"MEAN_MOTION_DDOT":0},{"OBJECT_NAME":"GLOBALSTAR M074","OBJECT_ID":"2010-054B","EPOCH":"2026-07-13T22:47:18.235968","CLASSIFICATION_TYPE":"U","MEAN_MOTION":12.62262031,"ECCENTRICITY":0.0000871,"INCLINATION":52.003,"RA_OF_ASC_NODE":26.4627,"ARG_OF_PERICENTER":91.637,"MEAN_ANOMALY":72.4767,"EPHEMERIS_TYPE":0,"NORAD_CAT_ID":37189,"ELEMENT_SET_NO":999,"REV_AT_EPOCH":72653,"BSTAR":0.000033673,"MEAN_MOTION_DOT":-9.8e-7,"MEAN_MOTION_DDOT":0},{"OBJECT_NAME":"GLOBALSTAR M076","OBJECT_ID":"2010-054C","EPOCH":"2026-07-13T19:38:42.000288","CLASSIFICATION_TYPE":"U","MEAN_MOTION":12.62262314,"ECCENTRICITY":0.0001094,"INCLINATION":52.0044,"RA_OF_ASC_NODE":27.0671,"ARG_OF_PERICENTER":87.9789,"MEAN_ANOMALY":80.5807,"EPHEMERIS_TYPE":0,"NORAD_CAT_ID":37190,"ELEMENT_SET_NO":999,"REV_AT_EPOCH":72623,"BSTAR":0.000094326,"MEAN_MOTION_DOT":-8.7e-7,"MEAN_MOTION_DDOT":0},{"OBJECT_NAME":"GLOBALSTAR M077","OBJECT_ID":"2010-054D","EPOCH":"2026-07-14T02:25:46.894080","CLASSIFICATION_TYPE":"U","MEAN_MOTION":11.67547566,"ECCENTRICITY":0.000229,"INCLINATION":51.9953,"RA_OF_ASC_NODE":110.9831,"ARG_OF_PERICENTER":223.3144,"MEAN_ANOMALY":244.09,"EPHEMERIS_TYPE":0,"NORAD_CAT_ID":37191,"ELEMENT_SET_NO":999,"REV_AT_EPOCH":72428,"BSTAR":-0.00031804,"MEAN_MOTION_DOT":-9.5e-7,"MEAN_MOTION_DDOT":0},{"OBJECT_NAME":"GLOBALSTAR M075","OBJECT_ID":"2010-054E","EPOCH":"2026-07-14T01:32:58.816896","CLASSIFICATION_TYPE":"U","MEAN_MOTION":12.62267829,"ECCENTRICITY":0.0000737,"INCLINATION":51.9952,"RA_OF_ASC_NODE":68.3569,"ARG_OF_PERICENTER":63.5122,"MEAN_ANOMALY":84.0712,"EPHEMERIS_TYPE":0,"NORAD_CAT_ID":37192,"ELEMENT_SET_NO":999,"REV_AT_EPOCH":72533,"BSTAR":0.00006852,"MEAN_MOTION_DOT":-9.1e-7,"MEAN_MOTION_DDOT":0},{"OBJECT_NAME":"GLOBALSTAR M073","OBJECT_ID":"2010-054F","EPOCH":"2026-07-13T17:43:46.743744","CLASSIFICATION_TYPE":"U","MEAN_MOTION":12.62266866,"ECCENTRICITY":0.0001081,"INCLINATION":52.0081,"RA_OF_ASC_NODE":343.4703,"ARG_OF_PERICENTER":94.4555,"MEAN_ANOMALY":10.101,"EPHEMERIS_TYPE":0,"NORAD_CAT_ID":37193,"ELEMENT_SET_NO":999,"REV_AT_EPOCH":72728,"BSTAR":-0.00001327,"MEAN_MOTION_DOT":-0.00000106,"MEAN_MOTION_DDOT":0},{"OBJECT_NAME":"GLOBALSTAR M083","OBJECT_ID":"2011-033A","EPOCH":"2026-07-13T14:14:11.380992","CLASSIFICATION_TYPE":"U","MEAN_MOTION":12.62264056,"ECCENTRICITY":0.0000808,"INCLINATION":51.9868,"RA_OF_ASC_NODE":292.1072,"ARG_OF_PERICENTER":104.1837,"MEAN_ANOMALY":359.9407,"EPHEMERIS_TYPE":0,"NORAD_CAT_ID":37739,"ELEMENT_SET_NO":999,"REV_AT_EPOCH":69628,"BSTAR":0.00012087,"MEAN_MOTION_DOT":-8.2e-7,"MEAN_MOTION_DDOT":0},{"OBJECT_NAME":"GLOBALSTAR M088","OBJECT_ID":"2011-033B","EPOCH":"2026-07-14T04:41:20.585760","CLASSIFICATION_TYPE":"U","MEAN_MOTION":12.62269458,"ECCENTRICITY":0.0000061,"INCLINATION":52.0185,"RA_OF_ASC_NODE":196.7646,"ARG_OF_PERICENTER":141.9135,"MEAN_ANOMALY":298.6738,"EPHEMERIS_TYPE":0,"NORAD_CAT_ID":37740,"ELEMENT_SET_NO":999,"REV_AT_EPOCH":69190,"BSTAR":0.000011801,"MEAN_MOTION_DOT":-0.00000102,"MEAN_MOTION_DDOT":0},{"OBJECT_NAME":"GLOBALSTAR M091","OBJECT_ID":"2011-033C","EPOCH":"2026-07-14T03:06:57.782016","CLASSIFICATION_TYPE":"U","MEAN_MOTION":12.62264239,"ECCENTRICITY":0.0000396,"INCLINATION":51.9979,"RA_OF_ASC_NODE":159.8894,"ARG_OF_PERICENTER":20.7919,"MEAN_ANOMALY":62.4381,"EPHEMERIS_TYPE":0,"NORAD_CAT_ID":37741,"ELEMENT_SET_NO":999,"REV_AT_EPOCH":69268,"BSTAR":-0.00010242,"MEAN_MOTION_DOT":-0.00000122,"MEAN_MOTION_DDOT":0},{"OBJECT_NAME":"GLOBALSTAR M085","OBJECT_ID":"2011-033D","EPOCH":"2026-07-14T03:05:23.085024","CLASSIFICATION_TYPE":"U","MEAN_MOTION":12.62264318,"ECCENTRICITY":0.0000764,"INCLINATION":52.0122,"RA_OF_ASC_NODE":111.2086,"ARG_OF_PERICENTER":39.8584,"MEAN_ANOMALY":98.4067,"EPHEMERIS_TYPE":0,"NORAD_CAT_ID":37742,"ELEMENT_SET_NO":999,"REV_AT_EPOCH":69319,"BSTAR":-0.000028793,"MEAN_MOTION_DOT":-0.00000109,"MEAN_MOTION_DDOT":0},{"OBJECT_NAME":"GLOBALSTAR M081","OBJECT_ID":"2011-033E","EPOCH":"2026-07-14T03:44:19.481856","CLASSIFICATION_TYPE":"U","MEAN_MOTION":12.62265284,"ECCENTRICITY":0.0000648,"INCLINATION":51.9952,"RA_OF_ASC_NODE":113.5316,"ARG_OF_PERICENTER":53.3746,"MEAN_ANOMALY":87.6694,"EPHEMERIS_TYPE":0,"NORAD_CAT_ID":37743,"ELEMENT_SET_NO":999,"REV_AT_EPOCH":69334,"BSTAR":-0.000073623,"MEAN_MOTION_DOT":-0.00000117,"MEAN_MOTION_DDOT":0},{"OBJECT_NAME":"GLOBALSTAR M089","OBJECT_ID":"2011-033F","EPOCH":"2026-07-14T00:53:53.926944","CLASSIFICATION_TYPE":"U","MEAN_MOTION":12.62267586,"ECCENTRICITY":0.0000691,"INCLINATION":51.9934,"RA_OF_ASC_NODE":68.0457,"ARG_OF_PERICENTER":88.3128,"MEAN_ANOMALY":55.7548,"EPHEMERIS_TYPE":0,"NORAD_CAT_ID":37744,"ELEMENT_SET_NO":999,"REV_AT_EPOCH":69417,"BSTAR":0.000059231,"MEAN_MOTION_DOT":-9.3e-7,"MEAN_MOTION_DDOT":0},{"OBJECT_NAME":"GLOBALSTAR M084","OBJECT_ID":"2011-080A","EPOCH":"2026-07-13T11:34:38.451072","CLASSIFICATION_TYPE":"U","MEAN_MOTION":12.62263497,"ECCENTRICITY":0.0000876,"INCLINATION":52.0021,"RA_OF_ASC_NODE":297.232,"ARG_OF_PERICENTER":127.5884,"MEAN_ANOMALY":312.9037,"EPHEMERIS_TYPE":0,"NORAD_CAT_ID":38040,"ELEMENT_SET_NO":999,"REV_AT_EPOCH":67208,"BSTAR":0.0000782701,"MEAN_MOTION_DOT":-9e-7,"MEAN_MOTION_DDOT":0}]}
